Zipcode,State,City,County
6390,NY,FISHERS ISLAND,SUFFOLK
10001,NY,NEW YORK,NEW YORK
10002,NY,NEW YORK,NEW YORK
10003,NY,NEW YORK,NEW YORK
10004,NY,NEW YORK,NEW YORK
10005,NY,NEW YORK,NEW YORK
10006,NY,NEW YORK,NEW YORK
10007,NY,NEW YORK,NEW YORK
10009,NY,NEW YORK,NEW YORK
10010,NY,NEW YORK,NEW YORK
10011,NY,NEW YORK,NEW YORK
10012,NY,NEW YORK,NEW YORK
10013,NY,NEW YORK,NEW YORK
10014,NY,NEW YORK,NEW YORK
10016,NY,NEW YORK,NEW YORK
10017,NY,NEW YORK,NEW YORK
10018,NY,NEW YORK,NEW YORK
10019,NY,NEW YORK,NEW YORK
10020,NY,NEW YORK,NEW YORK
10021,NY,NEW YORK,NEW YORK
10022,NY,NEW YORK,NEW YORK
10023,NY,NEW YORK,NEW YORK
10024,NY,NEW YORK,NEW YORK
10025,NY,NEW YORK,NEW YORK
10026,NY,NEW YORK,NEW YORK
10027,NY,NEW YORK,NEW YORK
10028,NY,NEW YORK,NEW YORK
10029,NY,NEW YORK,NEW YORK
10030,NY,NEW YORK,NEW YORK
10031,NY,NEW YORK,NEW YORK
10032,NY,NEW YORK,NEW YORK
10033,NY,NEW YORK,NEW YORK
10034,NY,NEW YORK,NEW YORK
10035,NY,NEW YORK,NEW YORK
10036,NY,NEW YORK,NEW YORK
10037,NY,NEW YORK,NEW YORK
10038,NY,NEW YORK,NEW YORK
10039,NY,NEW YORK,NEW YORK
10040,NY,NEW YORK,NEW YORK
10044,NY,NEW YORK,NEW YORK
10065,NY,NEW YORK,NEW YORK
10069,NY,NEW YORK,NEW YORK
10075,NY,NEW YORK,NEW YORK
10103,NY,NEW YORK,NEW YORK
10110,NY,NEW YORK,NEW YORK
10111,NY,NEW YORK,NEW YORK
10112,NY,NEW YORK,NEW YORK
10115,NY,NEW YORK,NEW YORK
10119,NY,NEW YORK,NEW YORK
10128,NY,NEW YORK,NEW YORK
10152,NY,NEW YORK,NEW YORK
10153,NY,NEW YORK,NEW YORK
10154,NY,NEW YORK,NEW YORK
10162,NY,NEW YORK,NEW YORK
10165,NY,NEW YORK,NEW YORK
10167,NY,NEW YORK,NEW YORK
10168,NY,NEW YORK,NEW YORK
10169,NY,NEW YORK,NEW YORK
10170,NY,NEW YORK,NEW YORK
10171,NY,NEW YORK,NEW YORK
10172,NY,NEW YORK,NEW YORK
10173,NY,NEW YORK,NEW YORK
10174,NY,NEW YORK,NEW YORK
10177,NY,NEW YORK,NEW YORK
10199,NY,NEW YORK,NEW YORK
10271,NY,NEW YORK,NEW YORK
10278,NY,NEW YORK,NEW YORK
10279,NY,NEW YORK,NEW YORK
10280,NY,NEW YORK,NEW YORK
10282,NY,NEW YORK,NEW YORK
10301,NY,STATEN ISLAND,RICHMOND
10302,NY,STATEN ISLAND,RICHMOND
10303,NY,STATEN ISLAND,RICHMOND
10304,NY,STATEN ISLAND,RICHMOND
10305,NY,STATEN ISLAND,RICHMOND
10306,NY,STATEN ISLAND,RICHMOND
10307,NY,STATEN ISLAND,RICHMOND
10308,NY,STATEN ISLAND,RICHMOND
10309,NY,STATEN ISLAND,RICHMOND
10310,NY,STATEN ISLAND,RICHMOND
10311,NY,STATEN ISLAND,RICHMOND
10312,NY,STATEN ISLAND,RICHMOND
10314,NY,STATEN ISLAND,RICHMOND
10451,NY,BRONX,BRONX
10452,NY,BRONX,BRONX
10453,NY,BRONX,BRONX
10454,NY,BRONX,BRONX
10455,NY,BRONX,BRONX
10456,NY,BRONX,BRONX
10457,NY,BRONX,BRONX
10458,NY,BRONX,BRONX
10459,NY,BRONX,BRONX
10460,NY,BRONX,BRONX
10461,NY,BRONX,BRONX
10462,NY,BRONX,BRONX
10463,NY,BRONX,BRONX
10464,NY,BRONX,BRONX
10465,NY,BRONX,BRONX
10466,NY,BRONX,BRONX
10467,NY,BRONX,BRONX
10468,NY,BRONX,BRONX
10469,NY,BRONX,BRONX
10470,NY,BRONX,BRONX
10471,NY,BRONX,BRONX
10472,NY,BRONX,BRONX
10473,NY,BRONX,BRONX
10474,NY,BRONX,BRONX
10475,NY,BRONX,BRONX
10501,NY,AMAWALK,WESTCHESTER
10502,NY,ARDSLEY,WESTCHESTER
10503,NY,ARDSLEY ON HUDSON,WESTCHESTER
10504,NY,ARMONK,WESTCHESTER
10505,NY,BALDWIN PLACE,WESTCHESTER
10506,NY,BEDFORD,WESTCHESTER
10507,NY,BEDFORD HILLS,WESTCHESTER
10509,NY,BREWSTER,PUTNAM
10510,NY,BRIARCLIFF MANOR,WESTCHESTER
10511,NY,BUCHANAN,WESTCHESTER
10512,NY,CARMEL,PUTNAM
10514,NY,CHAPPAQUA,WESTCHESTER
10516,NY,COLD SPRING,PUTNAM
10517,NY,CROMPOND,WESTCHESTER
10518,NY,CROSS RIVER,WESTCHESTER
10519,NY,CROTON FALLS,WESTCHESTER
10520,NY,CROTON ON HUDSON,WESTCHESTER
10522,NY,DOBBS FERRY,WESTCHESTER
10523,NY,ELMSFORD,WESTCHESTER
10524,NY,GARRISON,PUTNAM
10526,NY,GOLDENS BRIDGE,WESTCHESTER
10527,NY,GRANITE SPRINGS,WESTCHESTER
10528,NY,HARRISON,WESTCHESTER
10530,NY,HARTSDALE,WESTCHESTER
10532,NY,HAWTHORNE,WESTCHESTER
10533,NY,IRVINGTON,WESTCHESTER
10535,NY,JEFFERSON VALLEY,WESTCHESTER
10536,NY,KATONAH,WESTCHESTER
10537,NY,LAKE PEEKSKILL,PUTNAM
10538,NY,LARCHMONT,WESTCHESTER
10540,NY,LINCOLNDALE,WESTCHESTER
10541,NY,MAHOPAC,PUTNAM
10542,NY,MAHOPAC FALLS,PUTNAM
10543,NY,MAMARONECK,WESTCHESTER
10545,NY,MARYKNOLL,WESTCHESTER
10546,NY,MILLWOOD,WESTCHESTER
10547,NY,MOHEGAN LAKE,WESTCHESTER
10548,NY,MONTROSE,WESTCHESTER
10549,NY,MOUNT KISCO,WESTCHESTER
10550,NY,MOUNT VERNON,WESTCHESTER
10552,NY,MOUNT VERNON,WESTCHESTER
10553,NY,MOUNT VERNON,WESTCHESTER
10560,NY,NORTH SALEM,WESTCHESTER
10562,NY,OSSINING,WESTCHESTER
10566,NY,PEEKSKILL,WESTCHESTER
10567,NY,CORTLANDT MANOR,WESTCHESTER
10570,NY,PLEASANTVILLE,WESTCHESTER
10573,NY,PORT CHESTER,WESTCHESTER
10576,NY,POUND RIDGE,WESTCHESTER
10577,NY,PURCHASE,WESTCHESTER
10578,NY,PURDYS,WESTCHESTER
10579,NY,PUTNAM VALLEY,PUTNAM
10580,NY,RYE,WESTCHESTER
10583,NY,SCARSDALE,WESTCHESTER
10588,NY,SHRUB OAK,WESTCHESTER
10589,NY,SOMERS,WESTCHESTER
10590,NY,SOUTH SALEM,WESTCHESTER
10591,NY,TARRYTOWN,WESTCHESTER
10594,NY,THORNWOOD,WESTCHESTER
10595,NY,VALHALLA,WESTCHESTER
10596,NY,VERPLANCK,WESTCHESTER
10597,NY,WACCABUC,WESTCHESTER
10598,NY,YORKTOWN HEIGHTS,WESTCHESTER
10601,NY,WHITE PLAINS,WESTCHESTER
10603,NY,WHITE PLAINS,WESTCHESTER
10604,NY,WEST HARRISON,WESTCHESTER
10605,NY,WHITE PLAINS,WESTCHESTER
10606,NY,WHITE PLAINS,WESTCHESTER
10607,NY,WHITE PLAINS,WESTCHESTER
10701,NY,YONKERS,WESTCHESTER
10703,NY,YONKERS,WESTCHESTER
10704,NY,YONKERS,WESTCHESTER
10705,NY,YONKERS,WESTCHESTER
10706,NY,HASTINGS ON HUDSON,WESTCHESTER
10707,NY,TUCKAHOE,WESTCHESTER
10708,NY,BRONXVILLE,WESTCHESTER
10709,NY,EASTCHESTER,WESTCHESTER
10710,NY,YONKERS,WESTCHESTER
10801,NY,NEW ROCHELLE,WESTCHESTER
10803,NY,PELHAM,WESTCHESTER
10804,NY,NEW ROCHELLE,WESTCHESTER
10805,NY,NEW ROCHELLE,WESTCHESTER
10901,NY,SUFFERN,ROCKLAND
10910,NY,ARDEN,ORANGE
10911,NY,BEAR MOUNTAIN,ROCKLAND
10913,NY,BLAUVELT,ROCKLAND
10914,NY,BLOOMING GROVE,ORANGE
10915,NY,BULLVILLE,ORANGE
10916,NY,CAMPBELL HALL,ORANGE
10917,NY,CENTRAL VALLEY,ORANGE
10918,NY,CHESTER,ORANGE
10919,NY,CIRCLEVILLE,ORANGE
10920,NY,CONGERS,ROCKLAND
10921,NY,FLORIDA,ORANGE
10922,NY,FORT MONTGOMERY,ORANGE
10923,NY,GARNERVILLE,ROCKLAND
10924,NY,GOSHEN,ORANGE
10925,NY,GREENWOOD LAKE,ORANGE
10926,NY,HARRIMAN,ORANGE
10927,NY,HAVERSTRAW,ROCKLAND
10928,NY,HIGHLAND FALLS,ORANGE
10930,NY,HIGHLAND MILLS,ORANGE
10931,NY,HILLBURN,ROCKLAND
10932,NY,HOWELLS,ORANGE
10933,NY,JOHNSON,ORANGE
10940,NY,MIDDLETOWN,ORANGE
10941,NY,MIDDLETOWN,ORANGE
10950,NY,MONROE,ORANGE
10952,NY,MONSEY,ROCKLAND
10953,NY,MOUNTAINVILLE,ORANGE
10954,NY,NANUET,ROCKLAND
10956,NY,NEW CITY,ROCKLAND
10958,NY,NEW HAMPTON,ORANGE
10960,NY,NYACK,ROCKLAND
10962,NY,ORANGEBURG,ROCKLAND
10963,NY,OTISVILLE,ORANGE
10964,NY,PALISADES,ROCKLAND
10965,NY,PEARL RIVER,ROCKLAND
10968,NY,PIERMONT,ROCKLAND
10969,NY,PINE ISLAND,ORANGE
10970,NY,POMONA,ROCKLAND
10973,NY,SLATE HILL,ORANGE
10974,NY,SLOATSBURG,ROCKLAND
10975,NY,SOUTHFIELDS,ORANGE
10976,NY,SPARKILL,ROCKLAND
10977,NY,SPRING VALLEY,ROCKLAND
10979,NY,STERLING FOREST,ORANGE
10980,NY,STONY POINT,ROCKLAND
10983,NY,TAPPAN,ROCKLAND
10984,NY,THIELLS,ROCKLAND
10985,NY,THOMPSON RIDGE,ORANGE
10986,NY,TOMKINS COVE,ROCKLAND
10987,NY,TUXEDO PARK,ORANGE
10988,NY,UNIONVILLE,ORANGE
10989,NY,VALLEY COTTAGE,ROCKLAND
10990,NY,WARWICK,ORANGE
10992,NY,WASHINGTONVILLE,ORANGE
10993,NY,WEST HAVERSTRAW,ROCKLAND
10994,NY,WEST NYACK,ROCKLAND
10996,NY,WEST POINT,ORANGE
10998,NY,WESTTOWN,ORANGE
11001,NY,FLORAL PARK,NASSAU
11003,NY,ELMONT,NASSAU
11004,NY,GLEN OAKS,QUEENS
11005,NY,FLORAL PARK,QUEENS
11010,NY,FRANKLIN SQUARE,NASSAU
11020,NY,GREAT NECK,NASSAU
11021,NY,GREAT NECK,NASSAU
11023,NY,GREAT NECK,NASSAU
11024,NY,GREAT NECK,NASSAU
11030,NY,MANHASSET,NASSAU
11040,NY,NEW HYDE PARK,NASSAU
11042,NY,NEW HYDE PARK,NASSAU
11050,NY,PORT WASHINGTON,NASSAU
11096,NY,INWOOD,NASSAU
11101,NY,LONG ISLAND CITY,QUEENS
11102,NY,ASTORIA,QUEENS
11103,NY,ASTORIA,QUEENS
11104,NY,SUNNYSIDE,QUEENS
11105,NY,ASTORIA,QUEENS
11106,NY,ASTORIA,QUEENS
11109,NY,LONG ISLAND CITY,QUEENS
11201,NY,BROOKLYN,KINGS
11203,NY,BROOKLYN,KINGS
11204,NY,BROOKLYN,KINGS
11205,NY,BROOKLYN,KINGS
11206,NY,BROOKLYN,KINGS
11207,NY,BROOKLYN,KINGS
11208,NY,BROOKLYN,KINGS
11209,NY,BROOKLYN,KINGS
11210,NY,BROOKLYN,KINGS
11211,NY,BROOKLYN,KINGS
11212,NY,BROOKLYN,KINGS
11213,NY,BROOKLYN,KINGS
11214,NY,BROOKLYN,KINGS
11215,NY,BROOKLYN,KINGS
11216,NY,BROOKLYN,KINGS
11217,NY,BROOKLYN,KINGS
11218,NY,BROOKLYN,KINGS
11219,NY,BROOKLYN,KINGS
11220,NY,BROOKLYN,KINGS
11221,NY,BROOKLYN,KINGS
11222,NY,BROOKLYN,KINGS
11223,NY,BROOKLYN,KINGS
11224,NY,BROOKLYN,KINGS
11225,NY,BROOKLYN,KINGS
11226,NY,BROOKLYN,KINGS
11228,NY,BROOKLYN,KINGS
11229,NY,BROOKLYN,KINGS
11230,NY,BROOKLYN,KINGS
11231,NY,BROOKLYN,KINGS
11232,NY,BROOKLYN,KINGS
11233,NY,BROOKLYN,KINGS
11234,NY,BROOKLYN,KINGS
11235,NY,BROOKLYN,KINGS
11236,NY,BROOKLYN,KINGS
11237,NY,BROOKLYN,KINGS
11238,NY,BROOKLYN,KINGS
11239,NY,BROOKLYN,KINGS
11249,NY,BROOKLYN,KINGS
11354,NY,FLUSHING,QUEENS
11355,NY,FLUSHING,QUEENS
11356,NY,COLLEGE POINT,QUEENS
11357,NY,WHITESTONE,QUEENS
11358,NY,FLUSHING,QUEENS
11359,NY,BAYSIDE,QUEENS
11360,NY,BAYSIDE,QUEENS
11361,NY,BAYSIDE,QUEENS
11362,NY,LITTLE NECK,QUEENS
11363,NY,LITTLE NECK,QUEENS
11364,NY,OAKLAND GARDENS,QUEENS
11365,NY,FRESH MEADOWS,QUEENS
11366,NY,FRESH MEADOWS,QUEENS
11367,NY,FLUSHING,QUEENS
11368,NY,CORONA,QUEENS
11369,NY,EAST ELMHURST,QUEENS
11370,NY,EAST ELMHURST,QUEENS
11371,NY,FLUSHING,QUEENS
11372,NY,JACKSON HEIGHTS,QUEENS
11373,NY,ELMHURST,QUEENS
11374,NY,REGO PARK,QUEENS
11375,NY,FOREST HILLS,QUEENS
11377,NY,WOODSIDE,QUEENS
11378,NY,MASPETH,QUEENS
11379,NY,MIDDLE VILLAGE,QUEENS
11385,NY,RIDGEWOOD,QUEENS
11411,NY,CAMBRIA HEIGHTS,QUEENS
11412,NY,SAINT ALBANS,QUEENS
11413,NY,SPRINGFIELD GARDENS,QUEENS
11414,NY,HOWARD BEACH,QUEENS
11415,NY,KEW GARDENS,QUEENS
11416,NY,OZONE PARK,QUEENS
11417,NY,OZONE PARK,QUEENS
11418,NY,RICHMOND HILL,QUEENS
11419,NY,SOUTH RICHMOND HILL,QUEENS
11420,NY,SOUTH OZONE PARK,QUEENS
11421,NY,WOODHAVEN,QUEENS
11422,NY,ROSEDALE,QUEENS
11423,NY,HOLLIS,QUEENS
11424,NY,JAMAICA,QUEENS
11426,NY,BELLEROSE,QUEENS
11427,NY,QUEENS VILLAGE,QUEENS
11428,NY,QUEENS VILLAGE,QUEENS
11429,NY,QUEENS VILLAGE,QUEENS
11430,NY,JAMAICA,QUEENS
11432,NY,JAMAICA,QUEENS
11433,NY,JAMAICA,QUEENS
11434,NY,JAMAICA,QUEENS
11435,NY,JAMAICA,QUEENS
11436,NY,JAMAICA,QUEENS
11439,NY,JAMAICA,QUEENS
11451,NY,JAMAICA,QUEENS
11501,NY,MINEOLA,NASSAU
11507,NY,ALBERTSON,NASSAU
11509,NY,ATLANTIC BEACH,NASSAU
11510,NY,BALDWIN,NASSAU
11514,NY,CARLE PLACE,NASSAU
11516,NY,CEDARHURST,NASSAU
11518,NY,EAST ROCKAWAY,NASSAU
11520,NY,FREEPORT,NASSAU
11530,NY,GARDEN CITY,NASSAU
11542,NY,GLEN COVE,NASSAU
11545,NY,GLEN HEAD,NASSAU
11547,NY,GLENWOOD LANDING,NASSAU
11548,NY,GREENVALE,NASSAU
11549,NY,HEMPSTEAD,NASSAU
11550,NY,HEMPSTEAD,NASSAU
11552,NY,WEST HEMPSTEAD,NASSAU
11553,NY,UNIONDALE,NASSAU
11554,NY,EAST MEADOW,NASSAU
11556,NY,UNIONDALE,NASSAU
11557,NY,HEWLETT,NASSAU
11558,NY,ISLAND PARK,NASSAU
11559,NY,LAWRENCE,NASSAU
11560,NY,LOCUST VALLEY,NASSAU
11561,NY,LONG BEACH,NASSAU
11563,NY,LYNBROOK,NASSAU
11565,NY,MALVERNE,NASSAU
11566,NY,MERRICK,NASSAU
11568,NY,OLD WESTBURY,NASSAU
11569,NY,POINT LOOKOUT,NASSAU
11570,NY,ROCKVILLE CENTRE,NASSAU
11572,NY,OCEANSIDE,NASSAU
11575,NY,ROOSEVELT,NASSAU
11576,NY,ROSLYN,NASSAU
11577,NY,ROSLYN HEIGHTS,NASSAU
11579,NY,SEA CLIFF,NASSAU
11580,NY,VALLEY STREAM,NASSAU
11581,NY,VALLEY STREAM,NASSAU
11590,NY,WESTBURY,NASSAU
11596,NY,WILLISTON PARK,NASSAU
11598,NY,WOODMERE,NASSAU
11691,NY,FAR ROCKAWAY,QUEENS
11692,NY,ARVERNE,QUEENS
11693,NY,FAR ROCKAWAY,QUEENS
11694,NY,ROCKAWAY PARK,QUEENS
11697,NY,BREEZY POINT,QUEENS
11701,NY,AMITYVILLE,SUFFOLK
11702,NY,BABYLON,SUFFOLK
11703,NY,NORTH BABYLON,SUFFOLK
11704,NY,WEST BABYLON,SUFFOLK
11705,NY,BAYPORT,SUFFOLK
11706,NY,BAY SHORE,SUFFOLK
11709,NY,BAYVILLE,NASSAU
11710,NY,BELLMORE,NASSAU
11713,NY,BELLPORT,SUFFOLK
11714,NY,BETHPAGE,NASSAU
11715,NY,BLUE POINT,SUFFOLK
11716,NY,BOHEMIA,SUFFOLK
11717,NY,BRENTWOOD,SUFFOLK
11718,NY,BRIGHTWATERS,SUFFOLK
11719,NY,BROOKHAVEN,SUFFOLK
11720,NY,CENTEREACH,SUFFOLK
11721,NY,CENTERPORT,SUFFOLK
11722,NY,CENTRAL ISLIP,SUFFOLK
11724,NY,COLD SPRING HARBOR,SUFFOLK
11725,NY,COMMACK,SUFFOLK
11726,NY,COPIAGUE,SUFFOLK
11727,NY,CORAM,SUFFOLK
11729,NY,DEER PARK,SUFFOLK
11730,NY,EAST ISLIP,SUFFOLK
11731,NY,EAST NORTHPORT,SUFFOLK
11732,NY,EAST NORWICH,NASSAU
11733,NY,EAST SETAUKET,SUFFOLK
11735,NY,FARMINGDALE,SUFFOLK
11738,NY,FARMINGVILLE,SUFFOLK
11739,NY,GREAT RIVER,SUFFOLK
11740,NY,GREENLAWN,SUFFOLK
11741,NY,HOLBROOK,SUFFOLK
11742,NY,HOLTSVILLE,SUFFOLK
11743,NY,HUNTINGTON,SUFFOLK
11746,NY,HUNTINGTON STATION,SUFFOLK
11747,NY,MELVILLE,SUFFOLK
11749,NY,ISLANDIA,SUFFOLK
11751,NY,ISLIP,SUFFOLK
11752,NY,ISLIP TERRACE,SUFFOLK
11753,NY,JERICHO,NASSAU
11754,NY,KINGS PARK,SUFFOLK
11755,NY,LAKE GROVE,SUFFOLK
11756,NY,LEVITTOWN,NASSAU
11757,NY,LINDENHURST,SUFFOLK
11758,NY,MASSAPEQUA,NASSAU
11762,NY,MASSAPEQUA PARK,NASSAU
11763,NY,MEDFORD,SUFFOLK
11764,NY,MILLER PLACE,SUFFOLK
11765,NY,MILL NECK,NASSAU
11766,NY,MOUNT SINAI,SUFFOLK
11767,NY,NESCONSET,SUFFOLK
11768,NY,NORTHPORT,SUFFOLK
11769,NY,OAKDALE,SUFFOLK
11770,NY,OCEAN BEACH,SUFFOLK
11771,NY,OYSTER BAY,NASSAU
11772,NY,PATCHOGUE,SUFFOLK
11776,NY,PORT JEFFERSON STATION,SUFFOLK
11777,NY,PORT JEFFERSON,SUFFOLK
11778,NY,ROCKY POINT,SUFFOLK
11779,NY,RONKONKOMA,SUFFOLK
11780,NY,SAINT JAMES,SUFFOLK
11782,NY,SAYVILLE,SUFFOLK
11783,NY,SEAFORD,NASSAU
11784,NY,SELDEN,SUFFOLK
11786,NY,SHOREHAM,SUFFOLK
11787,NY,SMITHTOWN,SUFFOLK
11788,NY,HAUPPAUGE,SUFFOLK
11789,NY,SOUND BEACH,SUFFOLK
11790,NY,STONY BROOK,SUFFOLK
11791,NY,SYOSSET,NASSAU
11792,NY,WADING RIVER,SUFFOLK
11793,NY,WANTAGH,NASSAU
11794,NY,STONY BROOK,SUFFOLK
11795,NY,WEST ISLIP,SUFFOLK
11796,NY,WEST SAYVILLE,SUFFOLK
11797,NY,WOODBURY,NASSAU
11798,NY,WYANDANCH,SUFFOLK
11801,NY,HICKSVILLE,NASSAU
11803,NY,PLAINVIEW,NASSAU
11804,NY,OLD BETHPAGE,NASSAU
11901,NY,RIVERHEAD,SUFFOLK
11930,NY,AMAGANSETT,SUFFOLK
11931,NY,AQUEBOGUE,SUFFOLK
11932,NY,BRIDGEHAMPTON,SUFFOLK
11933,NY,CALVERTON,SUFFOLK
11934,NY,CENTER MORICHES,SUFFOLK
11935,NY,CUTCHOGUE,SUFFOLK
11937,NY,EAST HAMPTON,SUFFOLK
11939,NY,EAST MARION,SUFFOLK
11940,NY,EAST MORICHES,SUFFOLK
11941,NY,EASTPORT,SUFFOLK
11942,NY,EAST QUOGUE,SUFFOLK
11944,NY,GREENPORT,SUFFOLK
11946,NY,HAMPTON BAYS,SUFFOLK
11947,NY,JAMESPORT,SUFFOLK
11948,NY,LAUREL,SUFFOLK
11949,NY,MANORVILLE,SUFFOLK
11950,NY,MASTIC,SUFFOLK
11951,NY,MASTIC BEACH,SUFFOLK
11952,NY,MATTITUCK,SUFFOLK
11953,NY,MIDDLE ISLAND,SUFFOLK
11954,NY,MONTAUK,SUFFOLK
11955,NY,MORICHES,SUFFOLK
11956,NY,NEW SUFFOLK,SUFFOLK
11957,NY,ORIENT,SUFFOLK
11958,NY,PECONIC,SUFFOLK
11959,NY,QUOGUE,SUFFOLK
11960,NY,REMSENBURG,SUFFOLK
11961,NY,RIDGE,SUFFOLK
11962,NY,SAGAPONACK,SUFFOLK
11963,NY,SAG HARBOR,SUFFOLK
11964,NY,SHELTER ISLAND,SUFFOLK
11965,NY,SHELTER ISLAND HEIGHTS,SUFFOLK
11967,NY,SHIRLEY,SUFFOLK
11968,NY,SOUTHAMPTON,SUFFOLK
11970,NY,SOUTH JAMESPORT,SUFFOLK
11971,NY,SOUTHOLD,SUFFOLK
11972,NY,SPEONK,SUFFOLK
11973,NY,UPTON,SUFFOLK
11975,NY,WAINSCOTT,SUFFOLK
11976,NY,WATER MILL,SUFFOLK
11977,NY,WESTHAMPTON,SUFFOLK
11978,NY,WESTHAMPTON BEACH,SUFFOLK
11980,NY,YAPHANK,SUFFOLK
12007,NY,ALCOVE,ALBANY
12008,NY,ALPLAUS,SCHENECTADY
12009,NY,ALTAMONT,ALBANY
12010,NY,AMSTERDAM,MONTGOMERY
12015,NY,ATHENS,GREENE
12017,NY,AUSTERLITZ,COLUMBIA
12018,NY,AVERILL PARK,RENSSELAER
12019,NY,BALLSTON LAKE,SARATOGA
12020,NY,BALLSTON SPA,SARATOGA
12022,NY,BERLIN,RENSSELAER
12023,NY,BERNE,ALBANY
12024,NY,BRAINARD,COLUMBIA
12025,NY,BROADALBIN,FULTON
12027,NY,BURNT HILLS,SARATOGA
12028,NY,BUSKIRK,WASHINGTON
12029,NY,CANAAN,COLUMBIA
12031,NY,CARLISLE,SCHOHARIE
12032,NY,CAROGA LAKE,HAMILTON
12033,NY,CASTLETON ON HUDSON,RENSSELAER
12035,NY,CENTRAL BRIDGE,SCHOHARIE
12036,NY,CHARLOTTEVILLE,SCHOHARIE
12037,NY,CHATHAM,COLUMBIA
12040,NY,CHERRY PLAIN,RENSSELAER
12041,NY,CLARKSVILLE,ALBANY
12042,NY,CLIMAX,GREENE
12043,NY,COBLESKILL,SCHOHARIE
12045,NY,COEYMANS,ALBANY
12046,NY,COEYMANS HOLLOW,ALBANY
12047,NY,COHOES,ALBANY
12051,NY,COXSACKIE,GREENE
12052,NY,CROPSEYVILLE,RENSSELAER
12053,NY,DELANSON,SCHENECTADY
12054,NY,DELMAR,ALBANY
12056,NY,DUANESBURG,SCHENECTADY
12057,NY,EAGLE BRIDGE,WASHINGTON
12058,NY,EARLTON,GREENE
12059,NY,EAST BERNE,ALBANY
12060,NY,EAST CHATHAM,COLUMBIA
12061,NY,EAST GREENBUSH,RENSSELAER
12062,NY,EAST NASSAU,RENSSELAER
12063,NY,EAST SCHODACK,RENSSELAER
12064,NY,EAST WORCESTER,OTSEGO
12065,NY,CLIFTON PARK,SARATOGA
12066,NY,ESPERANCE,MONTGOMERY
12067,NY,FEURA BUSH,ALBANY
12068,NY,FONDA,MONTGOMERY
12069,NY,FORT HUNTER,MONTGOMERY
12070,NY,FORT JOHNSON,MONTGOMERY
12071,NY,FULTONHAM,SCHOHARIE
12072,NY,FULTONVILLE,MONTGOMERY
12074,NY,GALWAY,SARATOGA
12075,NY,GHENT,COLUMBIA
12076,NY,GILBOA,SCHOHARIE
12077,NY,GLENMONT,ALBANY
12078,NY,GLOVERSVILLE,FULTON
12082,NY,GRAFTON,RENSSELAER
12083,NY,GREENVILLE,GREENE
12084,NY,GUILDERLAND,ALBANY
12085,NY,GUILDERLAND CENTER,ALBANY
12086,NY,HAGAMAN,SARATOGA
12087,NY,HANNACROIX,GREENE
12090,NY,HOOSICK FALLS,RENSSELAER
12092,NY,HOWES CAVE,SCHOHARIE
12093,NY,JEFFERSON,SCHOHARIE
12094,NY,JOHNSONVILLE,RENSSELAER
12095,NY,JOHNSTOWN,FULTON
12106,NY,KINDERHOOK,COLUMBIA
12108,NY,LAKE PLEASANT,HAMILTON
12110,NY,LATHAM,ALBANY
12115,NY,MALDEN BRIDGE,COLUMBIA
12116,NY,MARYLAND,OTSEGO
12117,NY,MAYFIELD,FULTON
12118,NY,MECHANICVILLE,SARATOGA
12120,NY,MEDUSA,ALBANY
12121,NY,MELROSE,RENSSELAER
12122,NY,MIDDLEBURGH,SCHOHARIE
12123,NY,NASSAU,RENSSELAER
12124,NY,NEW BALTIMORE,GREENE
12125,NY,NEW LEBANON,COLUMBIA
12130,NY,NIVERVILLE,COLUMBIA
12131,NY,NORTH BLENHEIM,SCHOHARIE
12132,NY,NORTH CHATHAM,COLUMBIA
12134,NY,NORTHVILLE,HAMILTON
12136,NY,OLD CHATHAM,COLUMBIA
12137,NY,PATTERSONVILLE,SCHENECTADY
12138,NY,PETERSBURG,RENSSELAER
12139,NY,PISECO,HAMILTON
12140,NY,POESTENKILL,RENSSELAER
12143,NY,RAVENA,ALBANY
12144,NY,RENSSELAER,RENSSELAER
12147,NY,RENSSELAERVILLE,ALBANY
12148,NY,REXFORD,SARATOGA
12149,NY,RICHMONDVILLE,SCHOHARIE
12150,NY,ROTTERDAM JUNCTION,SCHENECTADY
12151,NY,ROUND LAKE,SARATOGA
12153,NY,SAND LAKE,RENSSELAER
12154,NY,SCHAGHTICOKE,RENSSELAER
12155,NY,SCHENEVUS,OTSEGO
12156,NY,SCHODACK LANDING,RENSSELAER
12157,NY,SCHOHARIE,SCHOHARIE
12158,NY,SELKIRK,ALBANY
12159,NY,SLINGERLANDS,ALBANY
12160,NY,SLOANSVILLE,SCHOHARIE
12161,NY,SOUTH BETHLEHEM,ALBANY
12164,NY,SPECULATOR,HAMILTON
12165,NY,SPENCERTOWN,COLUMBIA
12166,NY,SPRAKERS,MONTGOMERY
12167,NY,STAMFORD,SCHOHARIE
12168,NY,STEPHENTOWN,RENSSELAER
12169,NY,STEPHENTOWN,RENSSELAER
12170,NY,STILLWATER,SARATOGA
12172,NY,STOTTVILLE,COLUMBIA
12173,NY,STUYVESANT,COLUMBIA
12174,NY,STUYVESANT FALLS,COLUMBIA
12175,NY,SUMMIT,SCHOHARIE
12176,NY,SURPRISE,GREENE
12177,NY,TRIBES HILL,MONTGOMERY
12180,NY,TROY,RENSSELAER
12182,NY,TROY,RENSSELAER
12183,NY,TROY,ALBANY
12184,NY,VALATIE,COLUMBIA
12185,NY,VALLEY FALLS,RENSSELAER
12186,NY,VOORHEESVILLE,ALBANY
12187,NY,WARNERVILLE,SCHOHARIE
12188,NY,WATERFORD,SARATOGA
12189,NY,WATERVLIET,ALBANY
12190,NY,WELLS,HAMILTON
12192,NY,WEST COXSACKIE,GREENE
12193,NY,WESTERLO,ALBANY
12194,NY,WEST FULTON,SCHOHARIE
12195,NY,WEST LEBANON,COLUMBIA
12196,NY,WEST SAND LAKE,RENSSELAER
12197,NY,WORCESTER,OTSEGO
12198,NY,WYNANTSKILL,RENSSELAER
12202,NY,ALBANY,ALBANY
12203,NY,ALBANY,ALBANY
12204,NY,ALBANY,ALBANY
12205,NY,ALBANY,ALBANY
12206,NY,ALBANY,ALBANY
12207,NY,ALBANY,ALBANY
12208,NY,ALBANY,ALBANY
12209,NY,ALBANY,ALBANY
12210,NY,ALBANY,ALBANY
12211,NY,ALBANY,ALBANY
12222,NY,ALBANY,ALBANY
12226,NY,ALBANY,ALBANY
12302,NY,SCHENECTADY,SCHENECTADY
12303,NY,SCHENECTADY,ALBANY
12304,NY,SCHENECTADY,SCHENECTADY
12305,NY,SCHENECTADY,SCHENECTADY
12306,NY,SCHENECTADY,SCHENECTADY
12307,NY,SCHENECTADY,SCHENECTADY
12308,NY,SCHENECTADY,SCHENECTADY
12309,NY,SCHENECTADY,SCHENECTADY
12401,NY,KINGSTON,ULSTER
12404,NY,ACCORD,ULSTER
12405,NY,ACRA,GREENE
12406,NY,ARKVILLE,ULSTER
12407,NY,ASHLAND,GREENE
12409,NY,BEARSVILLE,ULSTER
12410,NY,BIG INDIAN,ULSTER
12411,NY,BLOOMINGTON,ULSTER
12412,NY,BOICEVILLE,ULSTER
12413,NY,CAIRO,GREENE
12414,NY,CATSKILL,GREENE
12416,NY,CHICHESTER,ULSTER
12417,NY,CONNELLY,ULSTER
12418,NY,CORNWALLVILLE,GREENE
12419,NY,COTTEKILL,ULSTER
12420,NY,CRAGSMOOR,ULSTER
12421,NY,DENVER,DELAWARE
12422,NY,DURHAM,GREENE
12423,NY,EAST DURHAM,GREENE
12424,NY,EAST JEWETT,GREENE
12427,NY,ELKA PARK,GREENE
12428,NY,ELLENVILLE,ULSTER
12429,NY,ESOPUS,ULSTER
12430,NY,FLEISCHMANNS,GREENE
12431,NY,FREEHOLD,GREENE
12432,NY,GLASCO,ULSTER
12433,NY,GLENFORD,ULSTER
12434,NY,GRAND GORGE,DELAWARE
12435,NY,GREENFIELD PARK,ULSTER
12436,NY,HAINES FALLS,GREENE
12438,NY,HALCOTTSVILLE,DELAWARE
12439,NY,HENSONVILLE,GREENE
12440,NY,HIGH FALLS,ULSTER
12441,NY,HIGHMOUNT,DELAWARE
12442,NY,HUNTER,GREENE
12443,NY,HURLEY,ULSTER
12444,NY,JEWETT,GREENE
12446,NY,KERHONKSON,ULSTER
12448,NY,LAKE HILL,ULSTER
12449,NY,LAKE KATRINE,ULSTER
12450,NY,LANESVILLE,GREENE
12451,NY,LEEDS,GREENE
12452,NY,LEXINGTON,GREENE
12453,NY,MALDEN ON HUDSON,ULSTER
12454,NY,MAPLECREST,GREENE
12455,NY,MARGARETVILLE,DELAWARE
12456,NY,MOUNT MARION,ULSTER
12457,NY,MOUNT TREMPER,ULSTER
12458,NY,NAPANOCH,ULSTER
12459,NY,NEW KINGSTON,DELAWARE
12460,NY,OAK HILL,ALBANY
12461,NY,OLIVEBRIDGE,ULSTER
12463,NY,PALENVILLE,GREENE
12464,NY,PHOENICIA,ULSTER
12465,NY,PINE HILL,ULSTER
12466,NY,PORT EWEN,ULSTER
12468,NY,PRATTSVILLE,GREENE
12469,NY,PRESTON HOLLOW,ALBANY
12470,NY,PURLING,GREENE
12471,NY,RIFTON,ULSTER
12472,NY,ROSENDALE,ULSTER
12473,NY,ROUND TOP,GREENE
12474,NY,ROXBURY,DELAWARE
12475,NY,RUBY,ULSTER
12477,NY,SAUGERTIES,ULSTER
12480,NY,SHANDAKEN,GREENE
12481,NY,SHOKAN,ULSTER
12482,NY,SOUTH CAIRO,GREENE
12483,NY,SPRING GLEN,SULLIVAN
12484,NY,STONE RIDGE,ULSTER
12485,NY,TANNERSVILLE,GREENE
12486,NY,TILLSON,ULSTER
12487,NY,ULSTER PARK,ULSTER
12489,NY,WAWARSING,ULSTER
12490,NY,WEST CAMP,ULSTER
12491,NY,WEST HURLEY,ULSTER
12492,NY,WEST KILL,GREENE
12493,NY,WEST PARK,ULSTER
12494,NY,WEST SHOKAN,ULSTER
12495,NY,WILLOW,ULSTER
12496,NY,WINDHAM,GREENE
12498,NY,WOODSTOCK,ULSTER
12501,NY,AMENIA,DUTCHESS
12502,NY,ANCRAM,COLUMBIA
12503,NY,ANCRAMDALE,COLUMBIA
12504,NY,ANNANDALE ON HUDSON,DUTCHESS
12507,NY,BARRYTOWN,DUTCHESS
12508,NY,BEACON,DUTCHESS
12512,NY,CHELSEA,DUTCHESS
12513,NY,CLAVERACK,COLUMBIA
12514,NY,CLINTON CORNERS,DUTCHESS
12515,NY,CLINTONDALE,ULSTER
12516,NY,COPAKE,COLUMBIA
12517,NY,COPAKE FALLS,COLUMBIA
12518,NY,CORNWALL,ORANGE
12520,NY,CORNWALL ON HUDSON,ORANGE
12521,NY,CRARYVILLE,COLUMBIA
12522,NY,DOVER PLAINS,DUTCHESS
12523,NY,ELIZAVILLE,COLUMBIA
12524,NY,FISHKILL,DUTCHESS
12525,NY,GARDINER,ULSTER
12526,NY,GERMANTOWN,COLUMBIA
12527,NY,GLENHAM,DUTCHESS
12528,NY,HIGHLAND,ULSTER
12529,NY,HILLSDALE,COLUMBIA
12530,NY,HOLLOWVILLE,COLUMBIA
12531,NY,HOLMES,DUTCHESS
12533,NY,HOPEWELL JUNCTION,DUTCHESS
12534,NY,HUDSON,COLUMBIA
12538,NY,HYDE PARK,DUTCHESS
12540,NY,LAGRANGEVILLE,DUTCHESS
12542,NY,MARLBORO,ULSTER
12543,NY,MAYBROOK,ORANGE
12544,NY,MELLENVILLE,COLUMBIA
12545,NY,MILLBROOK,DUTCHESS
12546,NY,MILLERTON,DUTCHESS
12547,NY,MILTON,ULSTER
12548,NY,MODENA,ULSTER
12549,NY,MONTGOMERY,ORANGE
12550,NY,NEWBURGH,ORANGE
12553,NY,NEW WINDSOR,ORANGE
12561,NY,NEW PALTZ,ULSTER
12563,NY,PATTERSON,PUTNAM
12564,NY,PAWLING,DUTCHESS
12565,NY,PHILMONT,COLUMBIA
12566,NY,PINE BUSH,ULSTER
12567,NY,PINE PLAINS,DUTCHESS
12569,NY,PLEASANT VALLEY,DUTCHESS
12570,NY,POUGHQUAG,DUTCHESS
12571,NY,RED HOOK,DUTCHESS
12572,NY,RHINEBECK,DUTCHESS
12574,NY,RHINECLIFF,DUTCHESS
12575,NY,ROCK TAVERN,ORANGE
12577,NY,SALISBURY MILLS,ORANGE
12578,NY,SALT POINT,DUTCHESS
12580,NY,STAATSBURG,DUTCHESS
12581,NY,STANFORDVILLE,DUTCHESS
12582,NY,STORMVILLE,DUTCHESS
12583,NY,TIVOLI,DUTCHESS
12585,NY,VERBANK,DUTCHESS
12586,NY,WALDEN,ORANGE
12589,NY,WALLKILL,ULSTER
12590,NY,WAPPINGERS FALLS,DUTCHESS
12592,NY,WASSAIC,DUTCHESS
12594,NY,WINGDALE,DUTCHESS
12601,NY,POUGHKEEPSIE,DUTCHESS
12603,NY,POUGHKEEPSIE,DUTCHESS
12604,NY,POUGHKEEPSIE,DUTCHESS
12701,NY,MONTICELLO,SULLIVAN
12719,NY,BARRYVILLE,SULLIVAN
12720,NY,BETHEL,SULLIVAN
12721,NY,BLOOMINGBURG,SULLIVAN
12722,NY,BURLINGHAM,SULLIVAN
12723,NY,CALLICOON,SULLIVAN
12724,NY,CALLICOON CENTER,SULLIVAN
12725,NY,CLARYVILLE,ULSTER
12726,NY,COCHECTON,SULLIVAN
12729,NY,CUDDEBACKVILLE,ORANGE
12732,NY,ELDRED,SULLIVAN
12733,NY,FALLSBURG,SULLIVAN
12734,NY,FERNDALE,SULLIVAN
12736,NY,FREMONT CENTER,SULLIVAN
12737,NY,GLEN SPEY,SULLIVAN
12738,NY,GLEN WILD,SULLIVAN
12740,NY,GRAHAMSVILLE,ULSTER
12741,NY,HANKINS,SULLIVAN
12742,NY,HARRIS,SULLIVAN
12743,NY,HIGHLAND LAKE,SULLIVAN
12745,NY,HORTONVILLE,SULLIVAN
12746,NY,HUGUENOT,ORANGE
12747,NY,HURLEYVILLE,SULLIVAN
12748,NY,JEFFERSONVILLE,SULLIVAN
12749,NY,KAUNEONGA LAKE,SULLIVAN
12750,NY,KENOZA LAKE,SULLIVAN
12751,NY,KIAMESHA LAKE,SULLIVAN
12752,NY,LAKE HUNTINGTON,SULLIVAN
12754,NY,LIBERTY,SULLIVAN
12758,NY,LIVINGSTON MANOR,SULLIVAN
12759,NY,LOCH SHELDRAKE,SULLIVAN
12760,NY,LONG EDDY,DELAWARE
12762,NY,MONGAUP VALLEY,SULLIVAN
12763,NY,MOUNTAIN DALE,SULLIVAN
12764,NY,NARROWSBURG,SULLIVAN
12765,NY,NEVERSINK,SULLIVAN
12766,NY,NORTH BRANCH,SULLIVAN
12767,NY,OBERNBURG,SULLIVAN
12768,NY,PARKSVILLE,SULLIVAN
12769,NY,PHILLIPSPORT,SULLIVAN
12770,NY,POND EDDY,SULLIVAN
12771,NY,PORT JERVIS,ORANGE
12775,NY,ROCK HILL,SULLIVAN
12776,NY,ROSCOE,DELAWARE
12777,NY,FORESTBURGH,SULLIVAN
12778,NY,SMALLWOOD,SULLIVAN
12779,NY,SOUTH FALLSBURG,SULLIVAN
12780,NY,SPARROW BUSH,ORANGE
12781,NY,SUMMITVILLE,SULLIVAN
12783,NY,SWAN LAKE,SULLIVAN
12784,NY,THOMPSONVILLE,SULLIVAN
12785,NY,WESTBROOKVILLE,SULLIVAN
12786,NY,WHITE LAKE,SULLIVAN
12787,NY,WHITE SULPHUR SPRINGS,SULLIVAN
12788,NY,WOODBOURNE,SULLIVAN
12789,NY,WOODRIDGE,SULLIVAN
12790,NY,WURTSBORO,SULLIVAN
12791,NY,YOUNGSVILLE,SULLIVAN
12792,NY,YULAN,SULLIVAN
12801,NY,GLENS FALLS,WARREN
12803,NY,SOUTH GLENS FALLS,SARATOGA
12804,NY,QUEENSBURY,WARREN
12808,NY,ADIRONDACK,WARREN
12809,NY,ARGYLE,WASHINGTON
12810,NY,ATHOL,WARREN
12811,NY,BAKERS MILLS,WARREN
12812,NY,BLUE MOUNTAIN LAKE,HAMILTON
12814,NY,BOLTON LANDING,WARREN
12815,NY,BRANT LAKE,WARREN
12816,NY,CAMBRIDGE,WASHINGTON
12817,NY,CHESTERTOWN,WARREN
12819,NY,CLEMONS,WASHINGTON
12820,NY,CLEVERDALE,WARREN
12821,NY,COMSTOCK,WASHINGTON
12822,NY,CORINTH,SARATOGA
12823,NY,COSSAYUNA,WASHINGTON
12824,NY,DIAMOND POINT,WARREN
12827,NY,FORT ANN,WASHINGTON
12828,NY,FORT EDWARD,WASHINGTON
12831,NY,GANSEVOORT,SARATOGA
12832,NY,GRANVILLE,WASHINGTON
12833,NY,GREENFIELD CENTER,SARATOGA
12834,NY,GREENWICH,WASHINGTON
12835,NY,HADLEY,SARATOGA
12836,NY,HAGUE,WARREN
12837,NY,HAMPTON,WASHINGTON
12838,NY,HARTFORD,WASHINGTON
12839,NY,HUDSON FALLS,WASHINGTON
12841,NY,HULETTS LANDING,WASHINGTON
12842,NY,INDIAN LAKE,HAMILTON
12843,NY,JOHNSBURG,WARREN
12844,NY,KATTSKILL BAY,WARREN
12845,NY,LAKE GEORGE,WARREN
12846,NY,LAKE LUZERNE,WARREN
12847,NY,LONG LAKE,HAMILTON
12849,NY,MIDDLE GRANVILLE,WASHINGTON
12850,NY,MIDDLE GROVE,SARATOGA
12851,NY,MINERVA,ESSEX
12852,NY,NEWCOMB,ESSEX
12853,NY,NORTH CREEK,WARREN
12854,NY,NORTH GRANVILLE,WASHINGTON
12855,NY,NORTH HUDSON,ESSEX
12856,NY,NORTH RIVER,WARREN
12857,NY,OLMSTEDVILLE,ESSEX
12858,NY,PARADOX,ESSEX
12859,NY,PORTER CORNERS,SARATOGA
12860,NY,POTTERSVILLE,WARREN
12861,NY,PUTNAM STATION,WASHINGTON
12862,NY,RIPARIUS,WARREN
12863,NY,ROCK CITY FALLS,SARATOGA
12864,NY,SABAEL,HAMILTON
12865,NY,SALEM,WASHINGTON
12866,NY,SARATOGA SPRINGS,SARATOGA
12870,NY,SCHROON LAKE,ESSEX
12871,NY,SCHUYLERVILLE,SARATOGA
12872,NY,SEVERANCE,ESSEX
12873,NY,SHUSHAN,WASHINGTON
12874,NY,SILVER BAY,WARREN
12878,NY,STONY CREEK,WARREN
12883,NY,TICONDEROGA,ESSEX
12884,NY,VICTORY MILLS,SARATOGA
12885,NY,WARRENSBURG,WARREN
12886,NY,WEVERTOWN,WARREN
12887,NY,WHITEHALL,WASHINGTON
12901,NY,PLATTSBURGH,CLINTON
12903,NY,PLATTSBURGH,CLINTON
12910,NY,ALTONA,CLINTON
12911,NY,KEESEVILLE,CLINTON
12912,NY,AU SABLE FORKS,CLINTON
12913,NY,BLOOMINGDALE,FRANKLIN
12914,NY,BOMBAY,FRANKLIN
12915,NY,BRAINARDSVILLE,FRANKLIN
12916,NY,BRUSHTON,FRANKLIN
12917,NY,BURKE,FRANKLIN
12918,NY,CADYVILLE,CLINTON
12919,NY,CHAMPLAIN,CLINTON
12920,NY,CHATEAUGAY,FRANKLIN
12921,NY,CHAZY,CLINTON
12922,NY,CHILDWOLD,ST. LAWRENCE
12923,NY,CHURUBUSCO,CLINTON
12924,NY,KEESEVILLE,CLINTON
12926,NY,CONSTABLE,FRANKLIN
12927,NY,CRANBERRY LAKE,ST. LAWRENCE
12928,NY,CROWN POINT,ESSEX
12929,NY,DANNEMORA,CLINTON
12930,NY,DICKINSON CENTER,FRANKLIN
12932,NY,ELIZABETHTOWN,ESSEX
12933,NY,ELLENBURG,CLINTON
12934,NY,ELLENBURG CENTER,CLINTON
12935,NY,ELLENBURG DEPOT,CLINTON
12936,NY,ESSEX,ESSEX
12937,NY,FORT COVINGTON,FRANKLIN
12939,NY,GABRIELS,FRANKLIN
12941,NY,JAY,ESSEX
12942,NY,KEENE,ESSEX
12943,NY,KEENE VALLEY,ESSEX
12944,NY,KEESEVILLE,ESSEX
12945,NY,LAKE CLEAR,FRANKLIN
12946,NY,LAKE PLACID,ESSEX
12950,NY,LEWIS,ESSEX
12952,NY,LYON MOUNTAIN,CLINTON
12953,NY,MALONE,FRANKLIN
12955,NY,LYON MOUNTAIN,CLINTON
12956,NY,MINEVILLE,ESSEX
12957,NY,MOIRA,FRANKLIN
12958,NY,MOOERS,CLINTON
12959,NY,MOOERS FORKS,CLINTON
12960,NY,MORIAH,ESSEX
12961,NY,MORIAH CENTER,ESSEX
12962,NY,MORRISONVILLE,CLINTON
12964,NY,NEW RUSSIA,ESSEX
12965,NY,NICHOLVILLE,ST. LAWRENCE
12966,NY,NORTH BANGOR,FRANKLIN
12967,NY,NORTH LAWRENCE,ST. LAWRENCE
12969,NY,OWLS HEAD,FRANKLIN
12970,NY,PAUL SMITHS,FRANKLIN
12972,NY,PERU,CLINTON
12973,NY,PIERCEFIELD,ST. LAWRENCE
12974,NY,PORT HENRY,ESSEX
12975,NY,PORT KENT,ESSEX
12976,NY,RAINBOW LAKE,FRANKLIN
12977,NY,RAY BROOK,ESSEX
12978,NY,REDFORD,CLINTON
12979,NY,ROUSES POINT,CLINTON
12980,NY,SAINT REGIS FALLS,FRANKLIN
12981,NY,SARANAC,CLINTON
12983,NY,SARANAC LAKE,FRANKLIN
12985,NY,SCHUYLER FALLS,CLINTON
12986,NY,TUPPER LAKE,FRANKLIN
12987,NY,UPPER JAY,ESSEX
12989,NY,VERMONTVILLE,FRANKLIN
12992,NY,WEST CHAZY,CLINTON
12993,NY,WESTPORT,ESSEX
12996,NY,WILLSBORO,ESSEX
12997,NY,WILMINGTON,ESSEX
12998,NY,WITHERBEE,ESSEX
13020,NY,APULIA STATION,ONONDAGA
13021,NY,AUBURN,CAYUGA
13024,NY,AUBURN,CAYUGA
13026,NY,AURORA,CAYUGA
13027,NY,BALDWINSVILLE,ONONDAGA
13028,NY,BERNHARDS BAY,OSWEGO
13029,NY,BREWERTON,ONONDAGA
13030,NY,BRIDGEPORT,MADISON
13031,NY,CAMILLUS,ONONDAGA
13032,NY,CANASTOTA,MADISON
13033,NY,CATO,CAYUGA
13034,NY,CAYUGA,CAYUGA
13035,NY,CAZENOVIA,MADISON
13036,NY,CENTRAL SQUARE,OSWEGO
13037,NY,CHITTENANGO,MADISON
13039,NY,CICERO,ONONDAGA
13040,NY,CINCINNATUS,CORTLAND
13041,NY,CLAY,ONONDAGA
13042,NY,CLEVELAND,ONEIDA
13044,NY,CONSTANTIA,OSWEGO
13045,NY,CORTLAND,CORTLAND
13051,NY,DELPHI FALLS,ONONDAGA
13052,NY,DE RUYTER,MADISON
13053,NY,DRYDEN,TOMPKINS
13054,NY,DURHAMVILLE,ONEIDA
13057,NY,EAST SYRACUSE,ONONDAGA
13060,NY,ELBRIDGE,ONONDAGA
13061,NY,ERIEVILLE,MADISON
13062,NY,ETNA,TOMPKINS
13063,NY,FABIUS,ONONDAGA
13065,NY,FAYETTE,SENECA
13066,NY,FAYETTEVILLE,ONONDAGA
13068,NY,FREEVILLE,TOMPKINS
13069,NY,FULTON,OSWEGO
13071,NY,GENOA,CAYUGA
13072,NY,GEORGETOWN,MADISON
13073,NY,GROTON,TOMPKINS
13074,NY,HANNIBAL,OSWEGO
13076,NY,HASTINGS,OSWEGO
13077,NY,HOMER,CORTLAND
13078,NY,JAMESVILLE,ONONDAGA
13080,NY,JORDAN,ONONDAGA
13081,NY,KING FERRY,CAYUGA
13082,NY,KIRKVILLE,MADISON
13083,NY,LACONA,OSWEGO
13084,NY,LA FAYETTE,ONONDAGA
13087,NY,LITTLE YORK,CORTLAND
13088,NY,LIVERPOOL,ONONDAGA
13090,NY,LIVERPOOL,ONONDAGA
13092,NY,LOCKE,CAYUGA
13101,NY,MCGRAW,CORTLAND
13102,NY,MCLEAN,TOMPKINS
13103,NY,MALLORY,OSWEGO
13104,NY,MANLIUS,ONONDAGA
13108,NY,MARCELLUS,ONONDAGA
13110,NY,MARIETTA,ONONDAGA
13111,NY,MARTVILLE,CAYUGA
13112,NY,MEMPHIS,ONONDAGA
13113,NY,MERIDIAN,CAYUGA
13114,NY,MEXICO,OSWEGO
13115,NY,MINETTO,OSWEGO
13116,NY,MINOA,ONONDAGA
13117,NY,MONTEZUMA,CAYUGA
13118,NY,MORAVIA,CAYUGA
13119,NY,MOTTVILLE,ONONDAGA
13120,NY,NEDROW,ONONDAGA
13121,NY,NEW HAVEN,OSWEGO
13122,NY,NEW WOODSTOCK,MADISON
13123,NY,NORTH BAY,ONEIDA
13124,NY,NORTH PITCHER,CHENANGO
13126,NY,OSWEGO,OSWEGO
13131,NY,PARISH,OSWEGO
13132,NY,PENNELLVILLE,OSWEGO
13134,NY,PETERBORO,MADISON
13135,NY,PHOENIX,OSWEGO
13136,NY,PITCHER,CHENANGO
13138,NY,POMPEY,ONONDAGA
13140,NY,PORT BYRON,CAYUGA
13141,NY,PREBLE,CORTLAND
13142,NY,PULASKI,OSWEGO
13143,NY,RED CREEK,WAYNE
13144,NY,RICHLAND,OSWEGO
13145,NY,SANDY CREEK,OSWEGO
13146,NY,SAVANNAH,WAYNE
13147,NY,SCIPIO CENTER,CAYUGA
13148,NY,SENECA FALLS,SENECA
13152,NY,SKANEATELES,ONONDAGA
13153,NY,SKANEATELES FALLS,ONONDAGA
13154,NY,SOUTH BUTLER,WAYNE
13155,NY,SOUTH OTSELIC,CHENANGO
13156,NY,STERLING,CAYUGA
13157,NY,SYLVAN BEACH,ONEIDA
13158,NY,TRUXTON,CORTLAND
13159,NY,TULLY,ONONDAGA
13160,NY,UNION SPRINGS,CAYUGA
13162,NY,VERONA BEACH,ONEIDA
13163,NY,WAMPSVILLE,MADISON
13164,NY,WARNERS,ONONDAGA
13165,NY,WATERLOO,SENECA
13166,NY,WEEDSPORT,CAYUGA
13167,NY,WEST MONROE,OSWEGO
13202,NY,SYRACUSE,ONONDAGA
13203,NY,SYRACUSE,ONONDAGA
13204,NY,SYRACUSE,ONONDAGA
13205,NY,SYRACUSE,ONONDAGA
13206,NY,SYRACUSE,ONONDAGA
13207,NY,SYRACUSE,ONONDAGA
13208,NY,SYRACUSE,ONONDAGA
13209,NY,SYRACUSE,ONONDAGA
13210,NY,SYRACUSE,ONONDAGA
13211,NY,SYRACUSE,ONONDAGA
13212,NY,SYRACUSE,ONONDAGA
13214,NY,SYRACUSE,ONONDAGA
13215,NY,SYRACUSE,ONONDAGA
13219,NY,SYRACUSE,ONONDAGA
13224,NY,SYRACUSE,ONONDAGA
13244,NY,SYRACUSE,ONONDAGA
13290,NY,SYRACUSE,ONONDAGA
13301,NY,ALDER CREEK,ONEIDA
13302,NY,ALTMAR,OSWEGO
13303,NY,AVA,ONEIDA
13304,NY,BARNEVELD,ONEIDA
13305,NY,BEAVER FALLS,LEWIS
13308,NY,BLOSSVALE,ONEIDA
13309,NY,BOONVILLE,ONEIDA
13310,NY,BOUCKVILLE,MADISON
13312,NY,BRANTINGHAM,LEWIS
13313,NY,BRIDGEWATER,ONEIDA
13314,NY,BROOKFIELD,MADISON
13315,NY,BURLINGTON FLATS,OTSEGO
13316,NY,CAMDEN,ONEIDA
13317,NY,CANAJOHARIE,MONTGOMERY
13318,NY,CASSVILLE,ONEIDA
13319,NY,CHADWICKS,ONEIDA
13320,NY,CHERRY VALLEY,OTSEGO
13321,NY,CLARK MILLS,ONEIDA
13322,NY,CLAYVILLE,HERKIMER
13323,NY,CLINTON,ONEIDA
13324,NY,COLD BROOK,HERKIMER
13325,NY,CONSTABLEVILLE,LEWIS
13326,NY,COOPERSTOWN,OTSEGO
13327,NY,CROGHAN,LEWIS
13328,NY,DEANSBORO,ONEIDA
13329,NY,DOLGEVILLE,FULTON
13331,NY,EAGLE BAY,HERKIMER
13332,NY,EARLVILLE,MADISON
13333,NY,EAST SPRINGFIELD,OTSEGO
13334,NY,EATON,MADISON
13335,NY,EDMESTON,OTSEGO
13337,NY,FLY CREEK,OTSEGO
13338,NY,FORESTPORT,HERKIMER
13339,NY,FORT PLAIN,MONTGOMERY
13340,NY,FRANKFORT,HERKIMER
13342,NY,GARRATTSVILLE,OTSEGO
13343,NY,GLENFIELD,LEWIS
13345,NY,GREIG,LEWIS
13346,NY,HAMILTON,MADISON
13348,NY,HARTWICK,OTSEGO
13350,NY,HERKIMER,HERKIMER
13352,NY,HINCKLEY,ONEIDA
13353,NY,HOFFMEISTER,HAMILTON
13354,NY,HOLLAND PATENT,ONEIDA
13355,NY,HUBBARDSVILLE,MADISON
13357,NY,ILION,HERKIMER
13360,NY,INLET,HAMILTON
13361,NY,JORDANVILLE,HERKIMER
13363,NY,LEE CENTER,ONEIDA
13364,NY,LEONARDSVILLE,MADISON
13365,NY,LITTLE FALLS,HERKIMER
13367,NY,LOWVILLE,LEWIS
13368,NY,LYONS FALLS,LEWIS
13402,NY,MADISON,MADISON
13403,NY,MARCY,ONEIDA
13404,NY,MARTINSBURG,LEWIS
13406,NY,MIDDLEVILLE,HERKIMER
13407,NY,MOHAWK,HERKIMER
13408,NY,MORRISVILLE,MADISON
13409,NY,MUNNSVILLE,MADISON
13410,NY,NELLISTON,MONTGOMERY
13411,NY,NEW BERLIN,OTSEGO
13413,NY,NEW HARTFORD,ONEIDA
13415,NY,NEW LISBON,OTSEGO
13416,NY,NEWPORT,HERKIMER
13417,NY,NEW YORK MILLS,ONEIDA
13418,NY,NORTH BROOKFIELD,MADISON
13420,NY,OLD FORGE,HERKIMER
13421,NY,ONEIDA,MADISON
13424,NY,ORISKANY,ONEIDA
13425,NY,ORISKANY FALLS,ONEIDA
13428,NY,PALATINE BRIDGE,MONTGOMERY
13431,NY,POLAND,HERKIMER
13433,NY,PORT LEYDEN,LEWIS
13435,NY,PROSPECT,ONEIDA
13436,NY,RAQUETTE LAKE,HAMILTON
13437,NY,REDFIELD,OSWEGO
13438,NY,REMSEN,ONEIDA
13439,NY,RICHFIELD SPRINGS,OTSEGO
13440,NY,ROME,ONEIDA
13441,NY,ROME,ONEIDA
13450,NY,ROSEBOOM,OTSEGO
13452,NY,SAINT JOHNSVILLE,FULTON
13454,NY,SALISBURY CENTER,HERKIMER
13455,NY,SANGERFIELD,ONEIDA
13456,NY,SAUQUOIT,ONEIDA
13457,NY,SCHUYLER LAKE,OTSEGO
13459,NY,SHARON SPRINGS,SCHOHARIE
13460,NY,SHERBURNE,CHENANGO
13461,NY,SHERRILL,ONEIDA
13464,NY,SMYRNA,CHENANGO
13468,NY,SPRINGFIELD CENTER,OTSEGO
13469,NY,STITTVILLE,ONEIDA
13470,NY,STRATFORD,FULTON
13471,NY,TABERG,ONEIDA
13472,NY,THENDARA,HERKIMER
13473,NY,TURIN,LEWIS
13475,NY,VAN HORNESVILLE,HERKIMER
13476,NY,VERNON,ONEIDA
13477,NY,VERNON CENTER,ONEIDA
13478,NY,VERONA,ONEIDA
13480,NY,WATERVILLE,ONEIDA
13482,NY,WEST BURLINGTON,OTSEGO
13483,NY,WESTDALE,ONEIDA
13484,NY,WEST EATON,MADISON
13485,NY,WEST EDMESTON,MADISON
13486,NY,WESTERNVILLE,ONEIDA
13488,NY,WESTFORD,OTSEGO
13489,NY,WEST LEYDEN,LEWIS
13490,NY,WESTMORELAND,ONEIDA
13491,NY,WEST WINFIELD,OTSEGO
13492,NY,WHITESBORO,ONEIDA
13493,NY,WILLIAMSTOWN,OSWEGO
13494,NY,WOODGATE,ONEIDA
13495,NY,YORKVILLE,ONEIDA
13501,NY,UTICA,ONEIDA
13502,NY,UTICA,ONEIDA
13601,NY,WATERTOWN,JEFFERSON
13602,NY,FORT DRUM,JEFFERSON
13603,NY,WATERTOWN,JEFFERSON
13605,NY,ADAMS,JEFFERSON
13606,NY,ADAMS CENTER,JEFFERSON
13607,NY,ALEXANDRIA BAY,JEFFERSON
13608,NY,ANTWERP,JEFFERSON
13611,NY,BELLEVILLE,JEFFERSON
13612,NY,BLACK RIVER,JEFFERSON
13613,NY,BRASHER FALLS,ST. LAWRENCE
13614,NY,BRIER HILL,ST. LAWRENCE
13615,NY,BROWNVILLE,JEFFERSON
13616,NY,CALCIUM,JEFFERSON
13617,NY,CANTON,ST. LAWRENCE
13618,NY,CAPE VINCENT,JEFFERSON
13619,NY,CARTHAGE,JEFFERSON
13620,NY,CASTORLAND,LEWIS
13621,NY,CHASE MILLS,ST. LAWRENCE
13622,NY,CHAUMONT,JEFFERSON
13623,NY,CHIPPEWA BAY,ST. LAWRENCE
13624,NY,CLAYTON,JEFFERSON
13625,NY,COLTON,ST. LAWRENCE
13626,NY,COPENHAGEN,LEWIS
13628,NY,DEFERIET,JEFFERSON
13630,NY,DE KALB JUNCTION,ST. LAWRENCE
13632,NY,DEPAUVILLE,JEFFERSON
13633,NY,DE PEYSTER,ST. LAWRENCE
13634,NY,DEXTER,JEFFERSON
13635,NY,EDWARDS,ST. LAWRENCE
13636,NY,ELLISBURG,JEFFERSON
13637,NY,EVANS MILLS,JEFFERSON
13638,NY,FELTS MILLS,JEFFERSON
13639,NY,FINE,ST. LAWRENCE
13640,NY,WELLESLEY ISLAND,JEFFERSON
13641,NY,FISHERS LANDING,JEFFERSON
13642,NY,GOUVERNEUR,ST. LAWRENCE
13643,NY,GREAT BEND,JEFFERSON
13645,NY,HAILESBORO,ST. LAWRENCE
13646,NY,HAMMOND,ST. LAWRENCE
13647,NY,HANNAWA FALLS,ST. LAWRENCE
13648,NY,HARRISVILLE,LEWIS
13649,NY,HELENA,ST. LAWRENCE
13650,NY,HENDERSON,JEFFERSON
13651,NY,HENDERSON HARBOR,JEFFERSON
13652,NY,HERMON,ST. LAWRENCE
13654,NY,HEUVELTON,ST. LAWRENCE
13655,NY,HOGANSBURG,FRANKLIN
13656,NY,LA FARGEVILLE,JEFFERSON
13658,NY,LISBON,ST. LAWRENCE
13659,NY,LORRAINE,JEFFERSON
13660,NY,MADRID,ST. LAWRENCE
13661,NY,MANNSVILLE,JEFFERSON
13662,NY,MASSENA,ST. LAWRENCE
13664,NY,MORRISTOWN,ST. LAWRENCE
13665,NY,NATURAL BRIDGE,LEWIS
13666,NY,NEWTON FALLS,ST. LAWRENCE
13667,NY,NORFOLK,ST. LAWRENCE
13668,NY,NORWOOD,ST. LAWRENCE
13669,NY,OGDENSBURG,ST. LAWRENCE
13670,NY,OSWEGATCHIE,ST. LAWRENCE
13672,NY,PARISHVILLE,ST. LAWRENCE
13673,NY,PHILADELPHIA,JEFFERSON
13674,NY,PIERREPONT MANOR,JEFFERSON
13675,NY,PLESSIS,JEFFERSON
13676,NY,POTSDAM,ST. LAWRENCE
13678,NY,RAYMONDVILLE,ST. LAWRENCE
13679,NY,REDWOOD,JEFFERSON
13680,NY,RENSSELAER FALLS,ST. LAWRENCE
13681,NY,RICHVILLE,ST. LAWRENCE
13682,NY,RODMAN,JEFFERSON
13683,NY,ROOSEVELTOWN,ST. LAWRENCE
13684,NY,RUSSELL,ST. LAWRENCE
13685,NY,SACKETS HARBOR,JEFFERSON
13687,NY,SOUTH COLTON,ST. LAWRENCE
13690,NY,STAR LAKE,ST. LAWRENCE
13691,NY,THERESA,JEFFERSON
13692,NY,THOUSAND ISLAND PARK,JEFFERSON
13693,NY,THREE MILE BAY,JEFFERSON
13694,NY,WADDINGTON,ST. LAWRENCE
13695,NY,WANAKENA,ST. LAWRENCE
13696,NY,WEST STOCKHOLM,ST. LAWRENCE
13697,NY,WINTHROP,ST. LAWRENCE
13699,NY,POTSDAM,ST. LAWRENCE
13730,NY,AFTON,CHENANGO
13731,NY,ANDES,DELAWARE
13732,NY,APALACHIN,TIOGA
13733,NY,BAINBRIDGE,CHENANGO
13734,NY,BARTON,TIOGA
13736,NY,BERKSHIRE,TIOGA
13738,NY,BLODGETT MILLS,CORTLAND
13739,NY,BLOOMVILLE,DELAWARE
13740,NY,BOVINA CENTER,DELAWARE
13743,NY,CANDOR,TIOGA
13744,NY,CASTLE CREEK,BROOME
13746,NY,CHENANGO FORKS,BROOME
13747,NY,COLLIERSVILLE,OTSEGO
13748,NY,CONKLIN,BROOME
13750,NY,DAVENPORT,DELAWARE
13751,NY,DAVENPORT CENTER,DELAWARE
13752,NY,DELANCEY,DELAWARE
13753,NY,DELHI,DELAWARE
13754,NY,DEPOSIT,BROOME
13755,NY,DOWNSVILLE,DELAWARE
13756,NY,EAST BRANCH,DELAWARE
13757,NY,EAST MEREDITH,DELAWARE
13760,NY,ENDICOTT,BROOME
13774,NY,FISHS EDDY,DELAWARE
13775,NY,FRANKLIN,DELAWARE
13776,NY,GILBERTSVILLE,OTSEGO
13777,NY,GLEN AUBREY,BROOME
13778,NY,GREENE,CHENANGO
13780,NY,GUILFORD,CHENANGO
13782,NY,HAMDEN,DELAWARE
13783,NY,HANCOCK,DELAWARE
13784,NY,HARFORD,CORTLAND
13786,NY,HARPERSFIELD,DELAWARE
13787,NY,HARPURSVILLE,BROOME
13788,NY,HOBART,DELAWARE
13790,NY,JOHNSON CITY,BROOME
13795,NY,KIRKWOOD,BROOME
13796,NY,LAURENS,OTSEGO
13797,NY,LISLE,BROOME
13801,NY,MCDONOUGH,CHENANGO
13802,NY,MAINE,BROOME
13803,NY,MARATHON,CORTLAND
13804,NY,MASONVILLE,DELAWARE
13806,NY,MERIDALE,DELAWARE
13807,NY,MILFORD,OTSEGO
13808,NY,MORRIS,OTSEGO
13809,NY,MOUNT UPTON,OTSEGO
13810,NY,MOUNT VISION,OTSEGO
13811,NY,NEWARK VALLEY,TIOGA
13812,NY,NICHOLS,TIOGA
13813,NY,NINEVEH,BROOME
13814,NY,NORTH NORWICH,CHENANGO
13815,NY,NORWICH,CHENANGO
13820,NY,ONEONTA,OTSEGO
13825,NY,OTEGO,OTSEGO
13826,NY,OUAQUAGA,BROOME
13827,NY,OWEGO,TIOGA
13830,NY,OXFORD,CHENANGO
13832,NY,PLYMOUTH,CHENANGO
13833,NY,PORT CRANE,BROOME
13834,NY,PORTLANDVILLE,OTSEGO
13835,NY,RICHFORD,TIOGA
13838,NY,SIDNEY,DELAWARE
13839,NY,SIDNEY CENTER,DELAWARE
13841,NY,SMITHVILLE FLATS,CHENANGO
13842,NY,SOUTH KORTRIGHT,DELAWARE
13843,NY,SOUTH NEW BERLIN,OTSEGO
13844,NY,SOUTH PLYMOUTH,CHENANGO
13846,NY,TREADWELL,DELAWARE
13847,NY,TROUT CREEK,DELAWARE
13849,NY,UNADILLA,OTSEGO
13850,NY,VESTAL,BROOME
13856,NY,WALTON,DELAWARE
13859,NY,WELLS BRIDGE,OTSEGO
13860,NY,WEST DAVENPORT,DELAWARE
13861,NY,WEST ONEONTA,OTSEGO
13862,NY,WHITNEY POINT,BROOME
13863,NY,WILLET,CORTLAND
13864,NY,WILLSEYVILLE,TIOGA
13865,NY,WINDSOR,BROOME
13901,NY,BINGHAMTON,BROOME
13902,NY,BINGHAMTON,BROOME
13903,NY,BINGHAMTON,BROOME
13904,NY,BINGHAMTON,BROOME
13905,NY,BINGHAMTON,BROOME
14001,NY,AKRON,ERIE
14004,NY,ALDEN,ERIE
14005,NY,ALEXANDER,GENESEE
14006,NY,ANGOLA,ERIE
14008,NY,APPLETON,NIAGARA
14009,NY,ARCADE,WYOMING
14011,NY,ATTICA,WYOMING
14012,NY,BARKER,NIAGARA
14013,NY,BASOM,GENESEE
14020,NY,BATAVIA,GENESEE
14024,NY,BLISS,WYOMING
14025,NY,BOSTON,ERIE
14026,NY,BOWMANSVILLE,ERIE
14027,NY,BRANT,ERIE
14028,NY,BURT,NIAGARA
14029,NY,CENTERVILLE,ALLEGANY
14030,NY,CHAFFEE,ERIE
14031,NY,CLARENCE,ERIE
14032,NY,CLARENCE CENTER,ERIE
14033,NY,COLDEN,ERIE
14034,NY,COLLINS,ERIE
14035,NY,COLLINS CENTER,ERIE
14036,NY,CORFU,GENESEE
14037,NY,COWLESVILLE,WYOMING
14039,NY,DALE,WYOMING
14040,NY,DARIEN CENTER,GENESEE
14041,NY,DAYTON,CATTARAUGUS
14042,NY,DELEVAN,CATTARAUGUS
14043,NY,DEPEW,ERIE
14047,NY,DERBY,ERIE
14048,NY,DUNKIRK,CHAUTAUQUA
14051,NY,EAST AMHERST,ERIE
14052,NY,EAST AURORA,ERIE
14054,NY,EAST BETHANY,GENESEE
14055,NY,EAST CONCORD,ERIE
14056,NY,EAST PEMBROKE,GENESEE
14057,NY,EDEN,ERIE
14058,NY,ELBA,GENESEE
14059,NY,ELMA,ERIE
14060,NY,FARMERSVILLE STATION,ALLEGANY
14061,NY,FARNHAM,ERIE
14062,NY,FORESTVILLE,CHAUTAUQUA
14063,NY,FREDONIA,CHAUTAUQUA
14065,NY,FREEDOM,CATTARAUGUS
14066,NY,GAINESVILLE,WYOMING
14067,NY,GASPORT,NIAGARA
14068,NY,GETZVILLE,ERIE
14069,NY,GLENWOOD,ERIE
14070,NY,GOWANDA,CATTARAUGUS
14072,NY,GRAND ISLAND,ERIE
14075,NY,HAMBURG,ERIE
14080,NY,HOLLAND,ERIE
14081,NY,IRVING,ERIE
14082,NY,JAVA CENTER,WYOMING
14083,NY,JAVA VILLAGE,WYOMING
14085,NY,LAKE VIEW,ERIE
14086,NY,LANCASTER,ERIE
14091,NY,LAWTONS,ERIE
14092,NY,LEWISTON,NIAGARA
14094,NY,LOCKPORT,NIAGARA
14098,NY,LYNDONVILLE,ORLEANS
14101,NY,MACHIAS,CATTARAUGUS
14102,NY,MARILLA,ERIE
14103,NY,MEDINA,ORLEANS
14105,NY,MIDDLEPORT,NIAGARA
14108,NY,NEWFANE,NIAGARA
14109,NY,NIAGARA UNIVERSITY,NIAGARA
14111,NY,NORTH COLLINS,ERIE
14112,NY,NORTH EVANS,ERIE
14113,NY,NORTH JAVA,WYOMING
14120,NY,NORTH TONAWANDA,NIAGARA
14125,NY,OAKFIELD,GENESEE
14126,NY,OLCOTT,NIAGARA
14127,NY,ORCHARD PARK,ERIE
14129,NY,PERRYSBURG,CATTARAUGUS
14130,NY,PIKE,WYOMING
14131,NY,RANSOMVILLE,NIAGARA
14132,NY,SANBORN,NIAGARA
14134,NY,SARDINIA,ERIE
14135,NY,SHERIDAN,CHAUTAUQUA
14136,NY,SILVER CREEK,CHAUTAUQUA
14138,NY,SOUTH DAYTON,CATTARAUGUS
14139,NY,SOUTH WALES,ERIE
14141,NY,SPRINGVILLE,ERIE
14143,NY,STAFFORD,GENESEE
14145,NY,STRYKERSVILLE,WYOMING
14150,NY,TONAWANDA,ERIE
14166,NY,VAN BUREN POINT,CHAUTAUQUA
14167,NY,VARYSBURG,WYOMING
14168,NY,VERSAILLES,CATTARAUGUS
14169,NY,WALES CENTER,ERIE
14170,NY,WEST FALLS,ERIE
14171,NY,WEST VALLEY,CATTARAUGUS
14172,NY,WILSON,NIAGARA
14173,NY,YORKSHIRE,CATTARAUGUS
14174,NY,YOUNGSTOWN,NIAGARA
14201,NY,BUFFALO,ERIE
14202,NY,BUFFALO,ERIE
14203,NY,BUFFALO,ERIE
14204,NY,BUFFALO,ERIE
14206,NY,BUFFALO,ERIE
14207,NY,BUFFALO,ERIE
14208,NY,BUFFALO,ERIE
14209,NY,BUFFALO,ERIE
14210,NY,BUFFALO,ERIE
14211,NY,BUFFALO,ERIE
14212,NY,BUFFALO,ERIE
14213,NY,BUFFALO,ERIE
14214,NY,BUFFALO,ERIE
14215,NY,BUFFALO,ERIE
14216,NY,BUFFALO,ERIE
14217,NY,BUFFALO,ERIE
14218,NY,BUFFALO,ERIE
14219,NY,BUFFALO,ERIE
14220,NY,BUFFALO,ERIE
14221,NY,BUFFALO,ERIE
14222,NY,BUFFALO,ERIE
14223,NY,BUFFALO,ERIE
14224,NY,BUFFALO,ERIE
14225,NY,BUFFALO,ERIE
14226,NY,BUFFALO,ERIE
14227,NY,BUFFALO,ERIE
14228,NY,BUFFALO,ERIE
14260,NY,BUFFALO,ERIE
14261,NY,BUFFALO,ERIE
14301,NY,NIAGARA FALLS,NIAGARA
14302,NY,NIAGARA FALLS,NIAGARA
14303,NY,NIAGARA FALLS,NIAGARA
14304,NY,NIAGARA FALLS,NIAGARA
14305,NY,NIAGARA FALLS,NIAGARA
14411,NY,ALBION,ORLEANS
14413,NY,ALTON,WAYNE
14414,NY,AVON,LIVINGSTON
14415,NY,BELLONA,YATES
14416,NY,BERGEN,GENESEE
14418,NY,BRANCHPORT,YATES
14420,NY,BROCKPORT,MONROE
14422,NY,BYRON,GENESEE
14423,NY,CALEDONIA,LIVINGSTON
14424,NY,CANANDAIGUA,ONTARIO
14425,NY,FARMINGTON,ONTARIO
14427,NY,CASTILE,WYOMING
14428,NY,CHURCHVILLE,MONROE
14432,NY,CLIFTON SPRINGS,ONTARIO
14433,NY,CLYDE,WAYNE
14435,NY,CONESUS,LIVINGSTON
14437,NY,DANSVILLE,LIVINGSTON
14441,NY,DRESDEN,YATES
14445,NY,EAST ROCHESTER,MONROE
14450,NY,FAIRPORT,MONROE
14453,NY,FISHERS,ONTARIO
14454,NY,GENESEO,LIVINGSTON
14456,NY,GENEVA,ONTARIO
14462,NY,GROVELAND,LIVINGSTON
14463,NY,HALL,ONTARIO
14464,NY,HAMLIN,MONROE
14466,NY,HEMLOCK,ONTARIO
14467,NY,HENRIETTA,MONROE
14468,NY,HILTON,MONROE
14469,NY,BLOOMFIELD,ONTARIO
14470,NY,HOLLEY,ORLEANS
14471,NY,HONEOYE,ONTARIO
14472,NY,HONEOYE FALLS,MONROE
14475,NY,IONIA,ONTARIO
14476,NY,KENDALL,ORLEANS
14477,NY,KENT,ORLEANS
14478,NY,KEUKA PARK,YATES
14479,NY,KNOWLESVILLE,ORLEANS
14480,NY,LAKEVILLE,LIVINGSTON
14481,NY,LEICESTER,LIVINGSTON
14482,NY,LE ROY,GENESEE
14485,NY,LIMA,LIVINGSTON
14486,NY,LINWOOD,LIVINGSTON
14487,NY,LIVONIA,LIVINGSTON
14489,NY,LYONS,WAYNE
14502,NY,MACEDON,WAYNE
14504,NY,MANCHESTER,ONTARIO
14505,NY,MARION,WAYNE
14506,NY,MENDON,MONROE
14507,NY,MIDDLESEX,YATES
14510,NY,MOUNT MORRIS,LIVINGSTON
14511,NY,MUMFORD,MONROE
14512,NY,NAPLES,ONTARIO
14513,NY,NEWARK,WAYNE
14514,NY,NORTH CHILI,MONROE
14515,NY,NORTH GREECE,MONROE
14516,NY,NORTH ROSE,WAYNE
14517,NY,NUNDA,LIVINGSTON
14519,NY,ONTARIO,WAYNE
14521,NY,OVID,SENECA
14522,NY,PALMYRA,WAYNE
14525,NY,PAVILION,GENESEE
14526,NY,PENFIELD,MONROE
14527,NY,PENN YAN,YATES
14529,NY,PERKINSVILLE,STEUBEN
14530,NY,PERRY,WYOMING
14532,NY,PHELPS,ONTARIO
14533,NY,PIFFARD,LIVINGSTON
14534,NY,PITTSFORD,MONROE
14536,NY,PORTAGEVILLE,WYOMING
14537,NY,PORT GIBSON,ONTARIO
14539,NY,RETSOF,LIVINGSTON
14541,NY,ROMULUS,SENECA
14542,NY,ROSE,WAYNE
14543,NY,RUSH,MONROE
14544,NY,RUSHVILLE,YATES
14545,NY,SCOTTSBURG,LIVINGSTON
14546,NY,SCOTTSVILLE,MONROE
14548,NY,SHORTSVILLE,ONTARIO
14549,NY,SILVER LAKE,WYOMING
14550,NY,SILVER SPRINGS,WYOMING
14551,NY,SODUS,WAYNE
14555,NY,SODUS POINT,WAYNE
14556,NY,SONYEA,LIVINGSTON
14557,NY,SOUTH BYRON,GENESEE
14559,NY,SPENCERPORT,MONROE
14560,NY,SPRINGWATER,ONTARIO
14561,NY,STANLEY,ONTARIO
14564,NY,VICTOR,ONTARIO
14568,NY,WALWORTH,WAYNE
14569,NY,WARSAW,WYOMING
14571,NY,WATERPORT,ORLEANS
14572,NY,WAYLAND,STEUBEN
14580,NY,WEBSTER,MONROE
14585,NY,WEST BLOOMFIELD,ONTARIO
14586,NY,WEST HENRIETTA,MONROE
14588,NY,WILLARD,SENECA
14589,NY,WILLIAMSON,WAYNE
14590,NY,WOLCOTT,WAYNE
14591,NY,WYOMING,WYOMING
14592,NY,YORK,LIVINGSTON
14604,NY,ROCHESTER,MONROE
14605,NY,ROCHESTER,MONROE
14606,NY,ROCHESTER,MONROE
14607,NY,ROCHESTER,MONROE
14608,NY,ROCHESTER,MONROE
14609,NY,ROCHESTER,MONROE
14610,NY,ROCHESTER,MONROE
14611,NY,ROCHESTER,MONROE
14612,NY,ROCHESTER,MONROE
14613,NY,ROCHESTER,MONROE
14614,NY,ROCHESTER,MONROE
14615,NY,ROCHESTER,MONROE
14616,NY,ROCHESTER,MONROE
14617,NY,ROCHESTER,MONROE
14618,NY,ROCHESTER,MONROE
14619,NY,ROCHESTER,MONROE
14620,NY,ROCHESTER,MONROE
14621,NY,ROCHESTER,MONROE
14622,NY,ROCHESTER,MONROE
14623,NY,ROCHESTER,MONROE
14624,NY,ROCHESTER,MONROE
14625,NY,ROCHESTER,MONROE
14626,NY,ROCHESTER,MONROE
14627,NY,ROCHESTER,MONROE
14642,NY,ROCHESTER,MONROE
14701,NY,JAMESTOWN,CHAUTAUQUA
14706,NY,ALLEGANY,CATTARAUGUS
14707,NY,ALLENTOWN,ALLEGANY
14708,NY,ALMA,ALLEGANY
14709,NY,ANGELICA,ALLEGANY
14710,NY,ASHVILLE,CHAUTAUQUA
14711,NY,BELFAST,ALLEGANY
14712,NY,BEMUS POINT,CHAUTAUQUA
14714,NY,BLACK CREEK,ALLEGANY
14715,NY,BOLIVAR,ALLEGANY
14716,NY,BROCTON,CHAUTAUQUA
14717,NY,CANEADEA,ALLEGANY
14718,NY,CASSADAGA,CHAUTAUQUA
14719,NY,CATTARAUGUS,CATTARAUGUS
14720,NY,CELORON,CHAUTAUQUA
14721,NY,CERES,ALLEGANY
14722,NY,CHAUTAUQUA,CHAUTAUQUA
14723,NY,CHERRY CREEK,CHAUTAUQUA
14724,NY,CLYMER,CHAUTAUQUA
14726,NY,CONEWANGO VALLEY,CATTARAUGUS
14727,NY,CUBA,ALLEGANY
14728,NY,DEWITTVILLE,CHAUTAUQUA
14729,NY,EAST OTTO,CATTARAUGUS
14731,NY,ELLICOTTVILLE,CATTARAUGUS
14732,NY,ELLINGTON,CHAUTAUQUA
14733,NY,FALCONER,CHAUTAUQUA
14735,NY,FILLMORE,ALLEGANY
14736,NY,FINDLEY LAKE,CHAUTAUQUA
14737,NY,FRANKLINVILLE,CATTARAUGUS
14738,NY,FREWSBURG,CHAUTAUQUA
14739,NY,FRIENDSHIP,ALLEGANY
14740,NY,GERRY,CHAUTAUQUA
14741,NY,GREAT VALLEY,CATTARAUGUS
14742,NY,GREENHURST,CHAUTAUQUA
14743,NY,HINSDALE,CATTARAUGUS
14744,NY,HOUGHTON,ALLEGANY
14747,NY,KENNEDY,CHAUTAUQUA
14748,NY,KILL BUCK,CATTARAUGUS
14750,NY,LAKEWOOD,CHAUTAUQUA
14752,NY,LILY DALE,CHAUTAUQUA
14753,NY,LIMESTONE,CATTARAUGUS
14754,NY,LITTLE GENESEE,ALLEGANY
14755,NY,LITTLE VALLEY,CATTARAUGUS
14756,NY,MAPLE SPRINGS,CHAUTAUQUA
14757,NY,MAYVILLE,CHAUTAUQUA
14760,NY,OLEAN,CATTARAUGUS
14767,NY,PANAMA,CHAUTAUQUA
14769,NY,PORTLAND,CHAUTAUQUA
14770,NY,PORTVILLE,ALLEGANY
14772,NY,RANDOLPH,CATTARAUGUS
14774,NY,RICHBURG,ALLEGANY
14775,NY,RIPLEY,CHAUTAUQUA
14777,NY,RUSHFORD,ALLEGANY
14778,NY,SAINT BONAVENTURE,CATTARAUGUS
14779,NY,SALAMANCA,CATTARAUGUS
14781,NY,SHERMAN,CHAUTAUQUA
14782,NY,SINCLAIRVILLE,CHAUTAUQUA
14783,NY,STEAMBURG,CATTARAUGUS
14784,NY,STOCKTON,CHAUTAUQUA
14785,NY,STOW,CHAUTAUQUA
14787,NY,WESTFIELD,CHAUTAUQUA
14788,NY,WESTONS MILLS,CATTARAUGUS
14801,NY,ADDISON,STEUBEN
14802,NY,ALFRED,ALLEGANY
14803,NY,ALFRED STATION,ALLEGANY
14804,NY,ALMOND,ALLEGANY
14805,NY,ALPINE,SCHUYLER
14806,NY,ANDOVER,ALLEGANY
14807,NY,ARKPORT,STEUBEN
14808,NY,ATLANTA,STEUBEN
14809,NY,AVOCA,STEUBEN
14810,NY,BATH,STEUBEN
14812,NY,BEAVER DAMS,SCHUYLER
14813,NY,BELMONT,ALLEGANY
14814,NY,BIG FLATS,CHEMUNG
14815,NY,BRADFORD,SCHUYLER
14816,NY,BREESPORT,CHEMUNG
14817,NY,BROOKTONDALE,TOMPKINS
14818,NY,BURDETT,SCHUYLER
14819,NY,CAMERON,STEUBEN
14820,NY,CAMERON MILLS,STEUBEN
14821,NY,CAMPBELL,STEUBEN
14822,NY,CANASERAGA,ALLEGANY
14823,NY,CANISTEO,STEUBEN
14824,NY,CAYUTA,SCHUYLER
14825,NY,CHEMUNG,CHEMUNG
14826,NY,COHOCTON,STEUBEN
14827,NY,COOPERS PLAINS,STEUBEN
14830,NY,CORNING,STEUBEN
14836,NY,DALTON,LIVINGSTON
14837,NY,DUNDEE,YATES
14838,NY,ERIN,CHEMUNG
14839,NY,GREENWOOD,STEUBEN
14840,NY,HAMMONDSPORT,STEUBEN
14841,NY,HECTOR,SCHUYLER
14842,NY,HIMROD,YATES
14843,NY,HORNELL,STEUBEN
14845,NY,HORSEHEADS,CHEMUNG
14846,NY,HUNT,LIVINGSTON
14847,NY,INTERLAKEN,SENECA
14850,NY,ITHACA,TOMPKINS
14853,NY,ITHACA,TOMPKINS
14854,NY,JACKSONVILLE,TOMPKINS
14855,NY,JASPER,STEUBEN
14856,NY,KANONA,STEUBEN
14858,NY,LINDLEY,STEUBEN
14859,NY,LOCKWOOD,TIOGA
14860,NY,LODI,SENECA
14861,NY,LOWMAN,CHEMUNG
14864,NY,MILLPORT,CHEMUNG
14865,NY,MONTOUR FALLS,SCHUYLER
14867,NY,NEWFIELD,TOMPKINS
14869,NY,ODESSA,SCHUYLER
14870,NY,PAINTED POST,STEUBEN
14871,NY,PINE CITY,CHEMUNG
14872,NY,PINE VALLEY,CHEMUNG
14873,NY,PRATTSBURGH,STEUBEN
14874,NY,PULTENEY,STEUBEN
14877,NY,REXVILLE,STEUBEN
14878,NY,ROCK STREAM,SCHUYLER
14879,NY,SAVONA,STEUBEN
14880,NY,SCIO,ALLEGANY
14881,NY,SLATERVILLE SPRINGS,TOMPKINS
14882,NY,LANSING,TOMPKINS
14883,NY,SPENCER,TIOGA
14884,NY,SWAIN,ALLEGANY
14885,NY,TROUPSBURG,STEUBEN
14886,NY,TRUMANSBURG,TOMPKINS
14889,NY,VAN ETTEN,CHEMUNG
14891,NY,WATKINS GLEN,SCHUYLER
14892,NY,WAVERLY,TIOGA
14893,NY,WAYNE,STEUBEN
14894,NY,WELLSBURG,CHEMUNG
14895,NY,WELLSVILLE,ALLEGANY
14897,NY,WHITESVILLE,ALLEGANY
14898,NY,WOODHULL,STEUBEN
14901,NY,ELMIRA,CHEMUNG
14903,NY,ELMIRA,CHEMUNG
14904,NY,ELMIRA,CHEMUNG
14905,NY,ELMIRA,CHEMUNG
